FAUNA                   
1 43052U 17071R   19043.79407512  .00003415  00000-0  92102-4 0  9993
2 43052  51.6394 307.2068 0003056  81.1873 278.9457 15.40681826 66647
CORVUS BC3              
1 43118U 18004H   19043.76475033  .00000658  00000-0  31359-4 0  9996
2 43118  97.5029 111.4503 0009858 341.8462  18.2421 15.22629253 60319
MICROMAS-2A             
1 43131U 18004W   19043.86513903  .00001633  00000-0  71152-4 0  9990
2 43131  97.5047 111.9822 0008902 344.6578  15.4387 15.23635227 60354
CICERO 7                
1 43143U 18004AJ  19043.77191199  .00001192  00000-0  52399-4 0  9994
2 43143  97.5038 112.0884 0007344 357.7530   2.3673 15.23860859 60353
GOMX-4B                 
1 43196U 18015E   19043.89121658  .00000143  00000-0  88395-5 0  9991
2 43196  97.3721 173.3781 0019924  33.4369 326.8128 15.23805736 57188
GOMX-4A                 
1 43197U 18015F   19044.02835413  .00000329  00000-0  16483-4 0  9993
2 43197  97.3737 173.5262 0020364  34.8011  55.2768 15.23902953 57217
1KUNS-PF                
1 43466U 98067NP  19044.02944423  .00013959  00000-0  16496-3 0  9995
2 43466  51.6377 250.0826 0000300 138.9728 221.1288 15.61599652 43255
UBAKUSAT                
1 43467U 98067NQ  19044.15517268  .00009440  00000-0  12128-3 0  9991
2 43467  51.6372 250.9183 0001804 313.0765  47.0077 15.59859601 43265
BATSU-CS1 (IRAZU)       
1 43468U 98067NR  19043.73435925  .00017519  00000-0  19512-3 0  9994
2 43468  51.6373 250.3575 0000518 163.9900 196.1110 15.62933723143212
CUBERRT                 
1 43546U 98067NU  19043.81462792  .00011291  00000-0  14233-3 0  9998
2 43546  51.6376 254.6348 0005216  24.2347 335.8891 15.60127268 33315
TEMPEST-D               
1 43547U 98067NV  19043.94461056  .00003249  00000-0  51815-4 0  9997
2 43547  51.6381 256.2492 0005934  21.1001 339.0235 15.56498178 32986
RAINCUBE                
1 43548U 98067NW  19043.84248101  .00009625  00000-0  13046-3 0  9998
2 43548  51.6368 255.5681 0005448  30.1544 329.9761 15.58392495 33436
HALOSAT                 
1 43549U 98067NX  19043.84263625  .00007881  00000-0  10810-3 0  9995
2 43549  51.6371 255.5718 0005428  32.6241 327.5086 15.58376070 32996
ENDUROSAT ONE           
1 43551U 98067NZ  19043.76869999  .00010984  00000-0  14321-3 0  9994
2 43551  51.6379 255.0779 0005789  40.0528 320.0890 15.59259598 33404
EQUISAT                 
1 43552U 98067PA  19043.99698290  .00009382  00000-0  12605-3 0  9997
2 43552  51.6389 254.3577 0006205  39.6195 320.5250 15.58663715 33394
AEROCUBE 12A            
1 43556U 18046C   19043.85890766  .00001477  00000-0  65521-4 0  9990
2 43556  51.6426 300.0706 0008184 344.6501  15.4229 15.28291247 32312
AEROCUBE 12B            
1 43557U 18046D   19044.12548871  .00001008  00000-0  48877-4 0  9994
2 43557  51.6425 298.8487 0008236 345.9065  14.1684 15.28214130 32305
UITMSAT-1               
1 43589U 98067PD  19043.73844474  .00010249  00000-0  13827-3 0  9997
2 43589  51.6363 256.3663 0005560  48.7848 311.3623 15.58433468 29086
MAYA-1                  
1 43590U 98067PE  19043.60704899  .00010678  00000-0  14366-3 0  9996
2 43590  51.6363 256.9898 0005735  48.3502 311.7981 15.58454895 28998
BHUTAN-1                
1 43591U 98067PF  19043.60201796  .00010812  00000-0  14510-3 0  9996
2 43591  51.6374 256.9602 0005815  49.2947 310.8549 15.58505519 28996
SIRIUSSAT-1             
1 43595U 98067PG  19043.78892262  .00009596  00000-0  13240-3 0  9999
2 43595  51.6370 256.7020 0002997   3.7363 356.3651 15.57921033 28196
SIRIUSSAT-2             
1 43596U 98067PH  19043.80629938  .00009500  00000-0  13190-3 0  9990
2 43596  51.6382 256.8368 0003627   4.5912 355.5113 15.57763765 28196
TANUSHA-3               
1 43597U 98067PJ  19043.76561055  .00010988  00000-0  14747-3 0  9992
2 43597  51.6365 256.5275 0003126  22.1482 337.9645 15.58490198 28196
SURFSAT                 
1 43614U 18070B   19043.89471146  .00002441  00000-0  67461-4 0  9990
2 43614  93.0386 311.6978 0019249  73.7698 286.5671 15.36932260 23084
CP7 (DAVE)              
1 43615U 18070C   19043.70029030  .00002267  00000-0  62748-4 0  9991
2 43615  93.0387 311.6180 0019272  74.2548 286.0829 15.36893349 23058
ELFIN-B                 
1 43616U 18070D   19043.81259739  .00003360  00000-0  91830-4 0  9994
2 43616  93.0346 311.6070 0020307  76.5220 283.8294 15.37234411 23078
ELFIN-A                 
1 43617U 18070E   19043.80928811  .00003393  00000-0  92706-4 0  9997
2 43617  93.0404 311.7228 0019301  73.7015 286.6359 15.37268631 23077
DEBRISSAT-1             
1 43621U 98067PM  19044.02659142  .00340449  00000-0  13094-2 0  9996
2 43621  51.6362 244.8164 0005022 250.6533 109.3394 15.85873371 23364
CUBEBEL-1 (BSUSAT-1)    
1 43666U 18083E   19044.13154969  .00000907  00000-0  48856-4 0  9992
2 43666  97.5310  69.4066 0013727 264.7940 183.1591 15.17299878 16243
DEBRISSAT-2             
1 43680U 98067PR  19044.21900734  .00013671  00000-0  18269-3 0  9992
2 43680  51.6400 254.3227 0003281  48.5798 311.5475 15.58362576 37003
CICERO 10               
1 43690U 18088A   19043.77999466  .00000913  00000-0  41242-4 0  9991
2 43690  85.0364  41.3743 0013589 316.1509  43.8652 15.19398811 14215
IRVINE01                
1 43693U 18088D   19043.96341969  .00002096  00000-0  93035-4 0  9995
2 43693  85.0346  41.1001 0016553 298.8998  61.0582 15.20806651 14251
PROXIMA I               
1 43694U 18088E   19043.80395193  .00000956  00000-0  40994-4 0  9996
2 43694  85.0307  41.1163 0017344 289.5143  70.4225 15.21144613 14247
PROXIMA II              
1 43696U 18088G   19043.93513331  .00000964  00000-0  41368-4 0  9993
2 43696  85.0308  41.0300 0017375 288.9108  71.0250 15.21151027 14253
FACSAT-1                
1 43721U 18096C   19044.17063496  .00001335  00000-0  54747-4 0  9998
2 43721  97.4747 114.1802 0019563  55.5811 304.7273 15.25899458 11591
CENTAURI-2              
1 43722U 18096D   19044.10016322  .00001649  00000-0  66663-4 0  9996
2 43722  97.4747 114.1219 0019657  56.6129 303.6987 15.26026914 11570
CORVUS-BC 4             
1 43767U 18099K   19044.19076405 -.00000009  00000-0  44767-5 0  9997
2 43767  97.7578 117.5581 0012367  28.6706 331.5192 14.94513323 10671
SHIELDS 1               
1 43850U 18104B   19043.52839022  .00000042  00000-0  00000+0 0  9997
2 43850  85.0320 139.8310 0017328  76.1692 284.1485 15.20960219  8844
STF-1                   
1 43852U 18104D   19044.01454717  .00000041  00000-0  00000+0 0  9997
2 43852  85.0365 139.5881 0017344  85.9199 274.4062 15.20332531  8914
LUME 1                  
1 43908U 18111AJ  19044.14465613  .00000950  00000-0  41764-4 0  9994
2 43908  97.2987 312.7724 0023545  75.4414 284.9433 15.24046600  7321
AOBA VELOX-IV           
1 43940U 19003J   19044.10033586  .00001412  00000-0  61914-4 0  9990
2 43940  97.2944 105.6517 0025608 151.1775 269.7181 15.23324617  3966
CATSAT-2                
1 44029U 98067PV  19044.05254727  .00006784  00000-0  11022-3 0  9993
2 44029  51.6387 258.4692 0005233  46.7794 313.3632 15.53975699  2021
DELPHINI                
1 44030U 98067PW  19044.05256053  .00008206  00000-0  13174-3 0  9990
2 44030  51.6385 258.4695 0004800  47.9019 312.2379 15.53983104  1997
UNITE                   
1 44031U 98067PX  19044.05244716  .00005384  00000-0  89027-4 0  9999
2 44031  51.6386 258.4680 0003441  47.0141 313.1138 15.53967182  1991
TECHEDSAT 8             
1 44032U 98067PY  19043.85813515  .00015390  00000-0  23805-3 0  9995
2 44032  51.6386 259.4205 0003298  50.0471 310.0809 15.54267442  1945
CATSAT-1                
1 44033U 98067PZ  19043.79511553  .00006514  00000-0  10604-3 0  9997
2 44033  51.6388 259.7496 0005186  47.0475 313.0950 15.54000351  1899
